QIANFAN-41              
1 62242U 24232F   26025.46004130  .00000044  00000+0  50097-4 0  9994
2 62242  89.0001  36.7795 0015792  68.2215 292.0615 13.50983358105153
QIANFAN-42              
1 62243U 24232G   26025.46499648  .00000225  00000+0  90741-4 0  9998
2 62243  88.9997  32.3557 0013104 307.1767  52.8228 14.24510657107598
QIANFAN-43              
1 62244U 24232H   26025.45591963  .00000034  00000+0  34402-4 0  9991
2 62244  89.0005  36.8472 0017364  72.6575 287.6473 13.50982349 73769
QIANFAN-44              
1 62245U 24232J   26025.51761626  .00000031  00000+0  29668-4 0  9999
2 62245  89.0003  36.6510 0015550  70.1326 290.1499 13.50984660105245
QIANFAN-45              
1 62246U 24232K   26025.48479499  .00000032  00000+0  31101-4 0  9996
2 62246  89.0007  36.8024 0016211  69.7824 290.5068 13.50980710105163
QIANFAN-46              
1 62247U 24232L   26025.50941760  .00000043  00000+0  47699-4 0  9996
2 62247  89.0003  36.8671 0016316  74.6274 285.6679 13.50982749105121
QIANFAN-47              
1 62248U 24232M   26025.51356921  .00000033  00000+0  31907-4 0  9991
2 62248  88.9999  36.7979 0016744  73.7657 286.5335 13.50982742105159
QIANFAN-48              
1 62249U 24232N   26025.47647647  .00000022  00000+0  15729-4 0  9997
2 62249  89.0003  36.8052 0019020  75.9525 284.3739 13.50983996105155
